1 37673U 11024A   13339.09360633  .00000495  00000-0  86151-4 0  9996
2 37673 098.0124 344.0876 0001722 100.5893 300.0262 14.72286421133672
1 37673U 11024A   13340.11293484  .00000611  00000-0  10460-3 0  9999
2 37673 098.0124 345.0922 0001711 099.7733 300.2628 14.72287836133821
1 37673U 11024A   13341.13270625  .00000612  00000-0  10467-3 0  9992
2 37673 098.0123 346.0972 0001701 098.7556 303.0517 14.72289806133970
1 37673U 11024A   13342.51450323  .00000678  00000-0  11505-3 0  9996
2 37673 098.0121 347.4590 0001703 098.6987 062.5532 14.72293618134171
1 37673U 11024A   13343.53306373  .00000687  00000-0  11657-3 0  9992
2 37673 098.0119 348.4628 0001681 096.8839 059.7443 14.72295161134323
1 37673U 11024A   13344.68315477  .00000765  00000-0  12889-3 0  9999
2 37673 098.0117 349.5962 0001665 095.8874 032.8513 14.72297237134498
1 37673U 11024A   13346.09372087  .00000705  00000-0  11942-3 0  9999
2 37673 098.0116 350.9862 0001652 096.1715 304.4403 14.72300453134701
1 37673U 11024A   13346.56182464  .00001044  00000-0  16526-3 0  9999
2 37673 098.0125 351.4466 0001698 079.2488 280.9416 14.72299414134779
1 37673U 11024A   13347.12274521  .00000824  00000-0  13824-3 0  9991
2 37673 098.0116 352.0002 0001633 094.6389 356.8013 14.72302404134851
1 37673U 11024A   13348.13279944  .00000859  00000-0  14377-3 0  9999
2 37673 098.0117 352.9954 0001621 094.7434 307.0455 14.72304605135007
1 37673U 11024A   13349.51355138  .00000801  00000-0  13460-3 0  9991
2 37673 098.0118 354.3559 0001613 095.2648 060.5080 14.72308481135202
1 37673U 11024A   13350.53313789  .00000806  00000-0  13533-3 0  9997
2 37673 098.0120 355.3605 0001593 094.4484 062.1919 14.72310456135354
1 37673U 11024A   13351.74584694  .00000722  00000-0  12200-3 0  9993
2 37673 098.0122 356.5555 0001571 094.6270 005.8808 14.72312334135532
1 37673U 11024A   13353.09376612  .00000675  00000-0  11455-3 0  9990
2 37673 098.0124 357.8838 0001555 094.3391 306.2688 14.72314804135735
1 37673U 11024A   13354.18391352  .00000661  00000-0  11233-3 0  9998
2 37673 098.0123 358.9581 0001537 091.6516 323.6174 14.72316601135897
